[{"OBJECT_NAME":"STARLINK-33651","OBJECT_ID":"2025-076V","EPOCH":"2026-03-09T01:23:27.917664","MEAN_MOTION":15.27609489,"ECCENTRICITY":0.00013675,"INCLINATION":42.9966,"RA_OF_ASC_NODE":325.2776,"ARG_OF_PERICENTER":264.0688,"MEAN_ANOMALY":96.0008,"EPHEMERIS_TYPE":0,"CLASSIFICATION_TYPE":"U","NORAD_CAT_ID":63588,"ELEMENT_SET_NO":999,"REV_AT_EPOCH":5173,"BSTAR":0.0012600074,"MEAN_MOTION_DOT":0.00034605,"MEAN_MOTION_DDOT":0},{"OBJECT_NAME":"GEOSCAN 6 (RS92S6)","OBJECT_ID":"2025-155D","EPOCH":"2026-03-09T21:52:39.201312","MEAN_MOTION":15.27985277,"ECCENTRICITY":0.00087677,"INCLINATION":97.4466,"RA_OF_ASC_NODE":37.2933,"ARG_OF_PERICENTER":153.7679,"MEAN_ANOMALY":206.4006,"EPHEMERIS_TYPE":0,"CLASSIFICATION_TYPE":"U","NORAD_CAT_ID":64879,"ELEMENT_SET_NO":999,"REV_AT_EPOCH":6559,"BSTAR":0.00053762354,"MEAN_MOTION_DOT":0.00014633,"MEAN_MOTION_DDOT":0}]
